#dP2021  5 15  0  0  0.00000000      96 __u+U ITR00 EXT  IAC
## 2157 518400.00000000   900.00000000 59349 0.0000000000000
+  116   C06C07C08C09C10C11C12C13C14C16C19C20C21C22C23C24C25
+        C26C27C28C29C30C32C33C34C35C36C37C38C39C40C41C42C43
+        C44C45C46E01E02E03E04E05E07E08E09E11E12E13E14E15E18
+        E19E21E24E25E26E27E30E31E33E36G01G02G03G04G05G06G07
+        G08G09G10G12G13G14G15G16G17G18G19G20G21G22G23G24G25
+        G26G27G28G29G30G31G32J01J02J03R01R02R03R04R05R07R08
+        R09R11R12R13R14R15R16R17R18R19R20R21R22R24  0  0  0
++         9 10  9  9  8 10 10  9  9 10  9  8  8  8  9  9  8
++         8  8  7  8 10  7  8  8  9 10 10 11  9  9  9  8  9
++         9 10 10  8  8  8  8  7  7  8  8  9  9  8  7  7  8
++         8  8  9  8  8  8  8 10  9  8  8  8  8  7  7  7  8
++         8  8  7  8  7  8  8  8  8  6  9  7  8  8  8  8  8
++         7  7  8  8  8  8  8  9 10 10  9  9  8  8 10  8  9
++        10  7  9 10  9  7  8  8  8  9  9  9  8  8  0  0  0
%c M  cc GPS ccc cccc cccc cccc cccc ccccc ccccc ccccc ccccc
%c cc cc ccc ccc cccc cccc cccc cccc ccccc ccccc ccccc ccccc
%f  0.0000000  0.000000000  0.00000000000  0.000000000000000
%f  0.0000000  0.000000000  0.00000000000  0.000000000000000
%i    0    0    0    0      0      0      0      0         0
%i    0    0    0    0      0      0      0      0         0
/* IAC                                ULTRA-RAPID PREDICTION
/* S/V CLOCKS ARE ALIGNED TO GNSS TIME                      
/* G:C1WC2W R:C1PC2P E:C1XC5X C:C2IC6I J:C1CC2S             
/* PCV:IGS14_2148 OL/AL:FES2004  NONE     YN ORB:CoN CLK:CoN
*  2021 05 15  4 45  0.00000000
PC06  -7638.107962  27603.365259 -30303.796469    386.221471
PC07 -22134.455377  25047.060577  25658.869358   -223.484594
PC08 -18827.510785  37823.496543   3207.300876   -890.358995
PC09   4949.013261  35966.947725 -20757.896368    522.949186
PC10  -5486.792932  27213.201822  31862.769810    -42.630992
PC11  18672.247565  13534.185459 -15683.731603    341.599912
PC12  12712.946532  24838.580170    838.659336    883.564963
PC13 -10166.489003  39922.263191  -9458.711475    261.164963
PC14  26290.015387   5622.139359  -7569.450858    733.950634
PC16  -4273.197533  29709.002042 -29392.197023   -838.400697
PC19 -27824.408454    854.628737  -1740.256548    835.284319
PC20 -21495.171876 -10313.693492  14496.199691   -916.571373
PC21   1997.420182  15864.136022 -22848.887614   -941.181868
PC22 -18171.655298  11867.866990 -17513.330069   -956.468089
PC23  16969.089412 -21708.829467   4432.218951   -907.599389
PC24  10341.207151  13450.954609  22151.672829   -850.962347
PC25  19463.124946  -7102.722969  18681.475770   -916.879130
PC26  -3340.756391  24439.638141  13073.303396    906.921070
PC27  -5999.379619 -25493.568914  -9685.547079    531.846645
PC28   8683.546181 -15405.304165 -21587.266701    -74.313329
PC29 -18380.621620  -2975.057382  20776.924697    392.424384
PC30 -17715.503941 -20275.078153   7377.954425    467.018566
PC32  -2062.373143 -15884.116395  22871.364170   -933.492484
PC33  27848.104229   -998.266329   1724.512685   -938.370654
PC34  17928.087883  19787.927595  -8076.549208   -673.230744
PC35  -8469.013824  15408.679691  21652.601080   -280.339485
PC36 -19553.793708   6303.754611 -18860.384009   -726.868245
PC37   4612.825886 -24574.818206 -12359.376358   -892.904090
PC38 -15402.371885  39283.929776  -1699.765704    148.802881
PC39   -116.531300  31215.567496 -28247.667112     31.089064
PC40 -13056.212762  21968.275366  33519.623762    161.068682
PC41  18407.896749 -11860.561066  17351.811266   -944.520822
PC42  21008.172096  10640.042088 -14940.168630   -915.412395
PC43  18592.808308   3516.601774 -20511.863901   -730.756620
PC44   6658.560804  25243.411533   9796.600721    188.484685
PC45 -16853.272239  21827.934785  -4329.081351    440.442590
PC46 -10999.695923 -12419.155328 -22429.753611    270.467529
PE01  24685.985270 -16266.856128  -1448.711317  -1108.026806
PE02 -24645.564846  16332.503309   1562.094812    219.144765
PE03 -18617.762329   7479.557353 -21751.781702   -431.035169
PE04   -657.257615 -18774.895543  22885.619096   -771.169801
PE05 -27279.735651  -8399.161961  -7822.117098   -280.891182
PE07  19956.074077  19187.688458 -10481.793298   -537.802567
PE08   1191.433456  18757.929542 -22862.136288   6001.946118
PE09 -20170.252335 -18991.542627  10410.083576   5667.451007
PE11  -9876.284420 -24296.137282  13735.480364   5978.811657
PE12   2453.350873 -29016.168323  -5386.204685   5210.119788
PE13   9704.168977  24525.977339 -13421.561213    416.410973
PE14  10339.055580  21737.646075  10783.607552  -1431.416783
PE15  -2319.291024  29011.664440   5370.249550    814.218737
PE18   1079.068063 -22506.241972 -20578.489614  -1566.824590
PE19  20285.911987  -5622.717445  20821.060363    277.178217
PE21  24891.607102  -2879.164639  15754.002178   -664.970370
PE24  -9920.779950 -13362.163336 -24493.291391   -900.719915
PE25 -24816.840836   2715.561693 -15902.854829   -533.863274
PE26  16193.449495   4741.386619 -24318.621020   1809.404515
PE27  10711.588577  12760.078839  24466.860315    -32.638527
PE30 -10675.076181  20851.958171  18090.409161   2944.576599
PE31   9661.164985 -20781.199044 -18729.681451   -481.173669
PE33  12945.020352 -16425.958847 -20950.420575   -468.612799
PE36 -15988.765001  -5625.114219  24269.600822   -207.249317
PG01 -13343.814191  16484.229407  15505.650744    688.746855
PG02  13582.301586   8442.211011 -20546.662703   -604.314969
PG03 -22359.070600  12889.908003  -6096.180718   -164.294247
PG04 -14100.772905   7414.540757 -21252.078918   -196.313654
PG05  24895.790650  -3548.274291  -8991.985904    -41.975552
PG06   7359.090155  19926.638270 -15848.979270     15.899580
PG07  -6731.434816  25154.445560  -3276.747771    151.181799
PG08 -20344.607957   -987.723456  17196.561308    -21.255216
PG09  -3469.012641  16156.609967 -20848.594897   -345.543995
PG10  -4122.443629 -14552.009077  21939.919925   -122.193881
PG12  24055.791178 -10272.503163  -4401.327522    -41.254027
PG13  21206.737159  10521.238772  12046.095599    132.186680
PG14   2885.546466  15095.067305  21651.276418     85.632600
PG15  20553.067707  -1530.731711  16576.607377   -149.320514
PG16 -23706.801128  -2234.329284 -12480.015594   -325.375670
PG17  10523.749652  21167.352864  12531.643713    442.579136
PG18   4925.494234 -26063.507417    -51.128258    350.346747
PG19  16795.711904  20318.516542   3430.174426      0.180369
PG20  23210.619413 -12533.287645   -373.864146    522.176010
PG21 -15311.552725   8407.841274  20584.877542    118.207413
PG22 -24671.923112   8573.932626   4397.913364   -613.995811
PG23   8428.468950 -17192.355162  18366.496946    106.578746
PG24  14706.250096 -11699.929669  18371.460205     78.363561
PG25  14938.642177 -16514.676802 -14532.397794    137.413070
PG26 -17392.728750  -7432.033290 -18807.496977     85.464218
PG27 -22696.526813 -11239.051525   8425.563715   -130.264905
PG28   8609.121244  13140.208684  21946.452929    571.136590
PG29   4493.438033 -15273.469226 -21299.597541   -347.259671
PG30   2089.061388  24751.519004   9128.501283   -426.215163
PG31  -9412.381131 -17281.894439 -17701.360813   -117.358723
PG32 -13719.685962 -20437.637057  10307.788108     21.186286
PJ01 -31285.393118  14483.060528 -19631.435242   -379.101715
PJ02 -28792.067469  30576.786649   8086.343705      0.070356
PJ03 -25538.593215  23597.615419  28918.905411     -5.487407
PR01  -6124.609967 -11803.296093  21771.551514     79.482165
PR02 -23076.875107  -8327.562865   7136.458315    478.656633
PR03 -23367.902278    179.176550 -10236.661420     35.974092
PR04 -10437.652616   8252.563135 -21730.404659     86.849971
PR05   8211.736043  11810.520451 -21043.175635     71.765721
PR07  23013.887198   -588.730222  10983.281618    -42.461443
PR08  10346.648065  -8449.149095  21787.177291    -58.993336
PR09  11687.575649   3362.035774  22446.506954     -7.072022
PR11  15021.624647 -20269.202084  -3803.360143     -4.255516
PR12   2622.314699 -16721.275022 -19051.901156    229.019608
PR13 -11003.403214  -3825.806995 -22709.068490    -54.737667
PR14 -18606.020473  11903.789647 -12734.427908     64.287613
PR15 -15042.094880  20144.808896   4325.793799    103.840648
PR16  -1384.019140  16398.933251  19512.771565    -15.089529
PR17 -10725.555746   1000.990589  23123.465531    424.169083
PR18  -3196.626361  17224.144056  18525.215377     76.581193
PR19   4991.532404  24542.760154   4831.493535   -143.736259
PR20  11790.966715  17271.590684 -14569.221151    -49.110941
PR21  10287.093732  -2190.447463 -23243.724360   -209.020099
PR22   2627.562676 -18115.010246 -17833.797087   -112.758775
PR24 -12451.776831 -16450.763652  15006.266274     42.700054
EOF
